CCSDS_OMM_VERS = 2.0
CREATION_DATE  = 
ORIGINATOR     = 

OBJECT_NAME    = HTV-X1
OBJECT_ID      = 2025-241A
CENTER_NAME    = EARTH
REF_FRAME      = TEME
TIME_SYSTEM    = UTC
MEAN_ELEMENT_THEORY = SGP/SGP4

EPOCH          = 2026-04-03T11:54:09.463104
MEAN_MOTION    = 15.32514940
ECCENTRICITY   = .0007288
INCLINATION    = 51.6362
RA_OF_ASC_NODE = 313.4962
ARG_OF_PERICENTER = 268.5107
MEAN_ANOMALY   = 91.5039

EPHEMERIS_TYPE = 0
CLASSIFICATION_TYPE = U
NORAD_CAT_ID   = 66174
ELEMENT_SET_NO = 999
REV_AT_EPOCH   = 2474
BSTAR          = .17316E-3
MEAN_MOTION_DOT = .5153E-4
MEAN_MOTION_DDOT = 0

CCSDS_OMM_VERS = 2.0
CREATION_DATE  = 
ORIGINATOR     = 

OBJECT_NAME    = SZ-21 MODULE
OBJECT_ID      = 2025-246C
CENTER_NAME    = EARTH
REF_FRAME      = TEME
TIME_SYSTEM    = UTC
MEAN_ELEMENT_THEORY = SGP/SGP4

EPOCH          = 2026-04-03T06:04:09.839424
MEAN_MOTION    = 15.70567905
ECCENTRICITY   = .0002892
INCLINATION    = 41.4748
RA_OF_ASC_NODE = 51.9348
ARG_OF_PERICENTER = 225.3271
MEAN_ANOMALY   = 134.7336

EPHEMERIS_TYPE = 0
CLASSIFICATION_TYPE = U
NORAD_CAT_ID   = 66515
ELEMENT_SET_NO = 999
REV_AT_EPOCH   = 2193
BSTAR          = .47388E-3
MEAN_MOTION_DOT = .60256E-3
MEAN_MOTION_DDOT = 0

CCSDS_OMM_VERS = 2.0
CREATION_DATE  = 
ORIGINATOR     = 

OBJECT_NAME    = SHENZHOU-22
OBJECT_ID      = 2025-272A
CENTER_NAME    = EARTH
REF_FRAME      = TEME
TIME_SYSTEM    = UTC
MEAN_ELEMENT_THEORY = SGP/SGP4

EPOCH          = 2026-04-03T08:13:06.530880
MEAN_MOTION    = 15.61928925
ECCENTRICITY   = .0003768
INCLINATION    = 41.4675
RA_OF_ASC_NODE = 58.0158
ARG_OF_PERICENTER = 113.6491
MEAN_ANOMALY   = 246.4744

EPHEMERIS_TYPE = 0
CLASSIFICATION_TYPE = U
NORAD_CAT_ID   = 66645
ELEMENT_SET_NO = 999
REV_AT_EPOCH   = 28172
BSTAR          = .35442E-3
MEAN_MOTION_DOT = .31546E-3
MEAN_MOTION_DDOT = 0

CCSDS_OMM_VERS = 2.0
CREATION_DATE  = 
ORIGINATOR     = 

OBJECT_NAME    = SOYUZ-MS 28
OBJECT_ID      = 2025-275A
CENTER_NAME    = EARTH
REF_FRAME      = TEME
TIME_SYSTEM    = UTC
MEAN_ELEMENT_THEORY = SGP/SGP4

EPOCH          = 2026-04-03T11:43:28.523712
MEAN_MOTION    = 15.48743801
ECCENTRICITY   = .0006234
INCLINATION    = 51.6327
RA_OF_ASC_NODE = 309.7562
ARG_OF_PERICENTER = 267.4493
MEAN_ANOMALY   = 92.5781

EPHEMERIS_TYPE = 0
CLASSIFICATION_TYPE = U
NORAD_CAT_ID   = 66664
ELEMENT_SET_NO = 999
REV_AT_EPOCH   = 56026
BSTAR          = .22309E-3
MEAN_MOTION_DOT = .11755E-3
MEAN_MOTION_DDOT = 0

CCSDS_OMM_VERS = 2.0
CREATION_DATE  = 
ORIGINATOR     = 

OBJECT_NAME    = DUPLEX
OBJECT_ID      = 1998-067XS
CENTER_NAME    = EARTH
REF_FRAME      = TEME
TIME_SYSTEM    = UTC
MEAN_ELEMENT_THEORY = SGP/SGP4

EPOCH          = 2026-04-03T04:02:04.640064
MEAN_MOTION    = 15.57885529
ECCENTRICITY   = .00031257
INCLINATION    = 51.6284
RA_OF_ASC_NODE = 306.8678
ARG_OF_PERICENTER = 227.1733
MEAN_ANOMALY   = 132.8996

EPHEMERIS_TYPE = 0
CLASSIFICATION_TYPE = U
NORAD_CAT_ID   = 66906
ELEMENT_SET_NO = 999
REV_AT_EPOCH   = 1894
BSTAR          = .57537076E-3
MEAN_MOTION_DOT = .43515E-3
MEAN_MOTION_DDOT = 0

CCSDS_OMM_VERS = 2.0
CREATION_DATE  = 
ORIGINATOR     = 

OBJECT_NAME    = ISS OBJECT XT
OBJECT_ID      = 1998-067XT
CENTER_NAME    = EARTH
REF_FRAME      = TEME
TIME_SYSTEM    = UTC
MEAN_ELEMENT_THEORY = SGP/SGP4

EPOCH          = 2026-04-03T06:49:33.278016
MEAN_MOTION    = 15.79389654
ECCENTRICITY   = .0006938
INCLINATION    = 51.6220
RA_OF_ASC_NODE = 299.3474
ARG_OF_PERICENTER = 241.0922
MEAN_ANOMALY   = 118.9383

EPHEMERIS_TYPE = 0
CLASSIFICATION_TYPE = U
NORAD_CAT_ID   = 66907
ELEMENT_SET_NO = 999
REV_AT_EPOCH   = 1905
BSTAR          = .18784E-2
MEAN_MOTION_DOT = .361691E-2
MEAN_MOTION_DDOT = 0

CCSDS_OMM_VERS = 2.0
CREATION_DATE  = 
ORIGINATOR     = 

OBJECT_NAME    = ISS OBJECT XU
OBJECT_ID      = 1998-067XU
CENTER_NAME    = EARTH
REF_FRAME      = TEME
TIME_SYSTEM    = UTC
MEAN_ELEMENT_THEORY = SGP/SGP4

EPOCH          = 2026-04-03T06:42:40.775904
MEAN_MOTION    = 15.79720595
ECCENTRICITY   = .0007096
INCLINATION    = 51.6221
RA_OF_ASC_NODE = 299.3108
ARG_OF_PERICENTER = 240.6488
MEAN_ANOMALY   = 119.3805

EPHEMERIS_TYPE = 0
CLASSIFICATION_TYPE = U
NORAD_CAT_ID   = 66908
ELEMENT_SET_NO = 999
REV_AT_EPOCH   = 1905
BSTAR          = .19242E-2
MEAN_MOTION_DOT = .376814E-2
MEAN_MOTION_DDOT = 0

CCSDS_OMM_VERS = 2.0
CREATION_DATE  = 
ORIGINATOR     = 

OBJECT_NAME    = SILVERSAT
OBJECT_ID      = 1998-067XV
CENTER_NAME    = EARTH
REF_FRAME      = TEME
TIME_SYSTEM    = UTC
MEAN_ELEMENT_THEORY = SGP/SGP4

EPOCH          = 2026-04-02T13:59:38.023008
MEAN_MOTION    = 15.85656241
ECCENTRICITY   = .00084842
INCLINATION    = 51.6187
RA_OF_ASC_NODE = 301.3924
ARG_OF_PERICENTER = 244.3474
MEAN_ANOMALY   = 115.6654

EPHEMERIS_TYPE = 0
CLASSIFICATION_TYPE = U
NORAD_CAT_ID   = 66909
ELEMENT_SET_NO = 999
REV_AT_EPOCH   = 1896
BSTAR          = .18698813E-2
MEAN_MOTION_DOT = .490335E-2
MEAN_MOTION_DDOT = 0

CCSDS_OMM_VERS = 2.0
CREATION_DATE  = 
ORIGINATOR     = 

OBJECT_NAME    = ISS OBJECT XW
OBJECT_ID      = 1998-067XW
CENTER_NAME    = EARTH
REF_FRAME      = TEME
TIME_SYSTEM    = UTC
MEAN_ELEMENT_THEORY = SGP/SGP4

EPOCH          = 2026-04-03T07:08:04.531488
MEAN_MOTION    = 15.77493204
ECCENTRICITY   = .0007291
INCLINATION    = 51.6203
RA_OF_ASC_NODE = 299.4256
ARG_OF_PERICENTER = 236.8734
MEAN_ANOMALY   = 123.1567

EPHEMERIS_TYPE = 0
CLASSIFICATION_TYPE = U
NORAD_CAT_ID   = 66910
ELEMENT_SET_NO = 999
REV_AT_EPOCH   = 1905
BSTAR          = .17271E-2
MEAN_MOTION_DOT = .303275E-2
MEAN_MOTION_DDOT = 0

CCSDS_OMM_VERS = 2.0
CREATION_DATE  = 
ORIGINATOR     = 

OBJECT_NAME    = ISS OBJECT XX
OBJECT_ID      = 1998-067XX
CENTER_NAME    = EARTH
REF_FRAME      = TEME
TIME_SYSTEM    = UTC
MEAN_ELEMENT_THEORY = SGP/SGP4

EPOCH          = 2026-04-02T22:34:23.452608
MEAN_MOTION    = 15.95513790
ECCENTRICITY   = .00106649
INCLINATION    = 51.6159
RA_OF_ASC_NODE = 297.7328
ARG_OF_PERICENTER = 251.8408
MEAN_ANOMALY   = 108.1439

EPHEMERIS_TYPE = 0
CLASSIFICATION_TYPE = U
NORAD_CAT_ID   = 66911
ELEMENT_SET_NO = 999
REV_AT_EPOCH   = 1903
BSTAR          = .27184661E-2
MEAN_MOTION_DOT = .1110416E-1
MEAN_MOTION_DDOT = .58671647E-3

CCSDS_OMM_VERS = 2.0
CREATION_DATE  = 
ORIGINATOR     = 

OBJECT_NAME    = ISS OBJECT XY
OBJECT_ID      = 1998-067XY
CENTER_NAME    = EARTH
REF_FRAME      = TEME
TIME_SYSTEM    = UTC
MEAN_ELEMENT_THEORY = SGP/SGP4

EPOCH          = 2026-04-03T06:35:38.535648
MEAN_MOTION    = 15.69079416
ECCENTRICITY   = .0004795
INCLINATION    = 51.6253
RA_OF_ASC_NODE = 302.3137
ARG_OF_PERICENTER = 234.0576
MEAN_ANOMALY   = 125.9976

EPHEMERIS_TYPE = 0
CLASSIFICATION_TYPE = U
NORAD_CAT_ID   = 66912
ELEMENT_SET_NO = 999
REV_AT_EPOCH   = 1900
BSTAR          = .13566E-2
MEAN_MOTION_DOT = .163051E-2
MEAN_MOTION_DDOT = 0

CCSDS_OMM_VERS = 2.0
CREATION_DATE  = 
ORIGINATOR     = 

OBJECT_NAME    = KNACKSAT-2
OBJECT_ID      = 1998-067XZ
CENTER_NAME    = EARTH
REF_FRAME      = TEME
TIME_SYSTEM    = UTC
MEAN_ELEMENT_THEORY = SGP/SGP4

EPOCH          = 2026-04-02T22:12:24.594624
MEAN_MOTION    = 15.53933498
ECCENTRICITY   = .00104217
INCLINATION    = 51.6310
RA_OF_ASC_NODE = 311.2469
ARG_OF_PERICENTER = 275.3642
MEAN_ANOMALY   = 84.6159

EPHEMERIS_TYPE = 0
CLASSIFICATION_TYPE = U
NORAD_CAT_ID   = 67683
ELEMENT_SET_NO = 999
REV_AT_EPOCH   = 855
BSTAR          = .1026702E-2
MEAN_MOTION_DOT = .67722E-3
MEAN_MOTION_DDOT = 0

